{
  "type": "FeatureCollection",
  "name": "北京国贸中心_室内地图",
  "description": "GeoHUB Data Hub 室内地图数据 - 北京国贸中心",
  "crs": {
    "type": "name",
    "properties": { "name": "urn:ogc:def:crs:EPSG::4326" }
  },
  "metadata": {
    "building_id": "B000A856LJ",
    "building_name": "北京国贸中心",
    "address": "北京市朝阳区建国门外大街1号",
    "total_floors": 7,
    "center_lng": 116.4608,
    "center_lat": 39.9097,
    "uploader": "QClaw Agent",
    "created": "2026-07-29"
  },
  "features": [
    {
      "type": "Feature",
      "properties": {
        "id": "SHOP_001", "floor": "L1", "floor_index": 3,
        "category": "shopping", "subcategory": "luxury",
        "name": "Chanel 香奈儿",
        "brand": "Chanel", "brand_en": "CHANEL",
        "type_icon": "🛍️", "color": "#1e40af",
        "business_hours": "10:00-22:00",
        "phone": "010-65051234"
      },
      "geometry": { "type": "Point", "coordinates": [116.4609, 39.9098] }
    },
    {
      "type": "Feature",
      "properties": {
        "id": "SHOP_002", "floor": "L1", "floor_index": 3,
        "category": "shopping", "subcategory": "beauty",
        "name": "Dior 迪奥",
        "brand": "Dior", "brand_en": "DIOR",
        "type_icon": "🛍️", "color": "#831843",
        "business_hours": "10:00-22:00",
        "phone": "010-65051235"
      },
      "geometry": { "type": "Point", "coordinates": [116.4611, 39.9097] }
    },
    {
      "type": "Feature",
      "properties": {
        "id": "SHOP_003", "floor": "L2", "floor_index": 4,
        "category": "shopping", "subcategory": "fashion",
        "name": "Gucci 古驰",
        "brand": "Gucci", "brand_en": "GUCCI",
        "type_icon": "🛍️", "color": "#1e3a5f",
        "business_hours": "10:00-21:30",
        "phone": "010-65051236"
      },
      "geometry": { "type": "Point", "coordinates": [116.4607, 39.9099] }
    },
    {
      "type": "Feature",
      "properties": {
        "id": "SHOP_004", "floor": "L2", "floor_index": 4,
        "category": "shopping", "subcategory": "fashion",
        "name": "Prada 普拉达",
        "brand": "Prada", "brand_en": "PRADA",
        "type_icon": "🛍️", "color": "#1e3a5f",
        "business_hours": "10:00-21:30"
      },
      "geometry": { "type": "Point", "coordinates": [116.4610, 39.9096] }
    },
    {
      "type": "Feature",
      "properties": {
        "id": "SHOP_005", "floor": "L3", "floor_index": 5,
        "category": "shopping", "subcategory": "fashion",
        "name": "ZARA",
        "brand": "ZARA", "brand_en": "ZARA",
        "type_icon": "🛍️", "color": "#3b82f6",
        "business_hours": "10:00-22:00",
        "phone": "010-65051237"
      },
      "geometry": { "type": "Point", "coordinates": [116.4608, 39.9099] }
    },
    {
      "type": "Feature",
      "properties": {
        "id": "SHOP_006", "floor": "L3", "floor_index": 5,
        "category": "shopping", "subcategory": "fashion",
        "name": "UNIQLO 优衣库",
        "brand": "UNIQLO", "brand_en": "UNIQLO",
        "type_icon": "🛍️", "color": "#3b82f6",
        "business_hours": "10:00-22:00"
      },
      "geometry": { "type": "Point", "coordinates": [116.4611, 39.9095] }
    },
    {
      "type": "Feature",
      "properties": {
        "id": "SHOP_007", "floor": "L3", "floor_index": 5,
        "category": "shopping", "subcategory": "sports",
        "name": "Nike 耐克",
        "brand": "Nike", "brand_en": "NIKE",
        "type_icon": "🏃", "color": "#3b82f6",
        "business_hours": "10:00-22:00"
      },
      "geometry": { "type": "Point", "coordinates": [116.4605, 39.9097] }
    },
    {
      "type": "Feature",
      "properties": {
        "id": "FOOD_001", "floor": "L4", "floor_index": 6,
        "category": "dining", "subcategory": "restaurant",
        "name": "绿茶餐厅",
        "brand": "绿茶", "brand_en": "LVCHA",
        "type_icon": "🍽️", "color": "#92400e",
        "business_hours": "11:00-21:30",
        "phone": "010-65051240"
      },
      "geometry": { "type": "Point", "coordinates": [116.4609, 39.9096] }
    },
    {
      "type": "Feature",
      "properties": {
        "id": "FOOD_002", "floor": "L4", "floor_index": 6,
        "category": "dining", "subcategory": "restaurant",
        "name": "外婆家",
        "brand": "外婆家", "brand_en": "WAIPOJIA",
        "type_icon": "🍽️", "color": "#92400e",
        "business_hours": "11:00-21:00"
      },
      "geometry": { "type": "Point", "coordinates": [116.4612, 39.9098] }
    },
    {
      "type": "Feature",
      "properties": {
        "id": "FOOD_003", "floor": "L4", "floor_index": 6,
        "category": "dining", "subcategory": "dessert",
        "name": "鼎泰丰",
        "brand": "鼎泰丰", "brand_en": "DTF",
        "type_icon": "🥟", "color": "#92400e",
        "business_hours": "10:00-22:00"
      },
      "geometry": { "type": "Point", "coordinates": [116.4606, 39.9099] }
    },
    {
      "type": "Feature",
      "properties": {
        "id": "SVC_001", "floor": "L1", "floor_index": 3,
        "category": "service", "subcategory": "elevator",
        "name": "主电梯 A",
        "type_icon": "🛗", "color": "#065f46",
        "floor_access": ["B3","B2","B1","L1","L2","L3","L4"]
      },
      "geometry": { "type": "Point", "coordinates": [116.4608, 39.9095] }
    },
    {
      "type": "Feature",
      "properties": {
        "id": "SVC_002", "floor": "L1", "floor_index": 3,
        "category": "service", "subcategory": "elevator",
        "name": "主电梯 B",
        "type_icon": "🛗", "color": "#065f46",
        "floor_access": ["B3","B2","B1","L1","L2","L3","L4"]
      },
      "geometry": { "type": "Point", "coordinates": [116.4613, 39.9097] }
    },
    {
      "type": "Feature",
      "properties": {
        "id": "SVC_003", "floor": "L1", "floor_index": 3,
        "category": "service", "subcategory": "escalator",
        "name": "扶梯 1→2",
        "type_icon": "🚶", "color": "#065f46",
        "floor_access": ["L1","L2"]
      },
      "geometry": { "type": "Point", "coordinates": [116.4605, 39.9099] }
    },
    {
      "type": "Feature",
      "properties": {
        "id": "SVC_004", "floor": "B1", "floor_index": 2,
        "category": "service", "subcategory": "toilet",
        "name": "洗手间（女）",
        "type_icon": "🚺", "color": "#0891b2",
        "floor_access": ["B1"]
      },
      "geometry": { "type": "Point", "coordinates": [116.4608, 39.9094] }
    },
    {
      "type": "Feature",
      "properties": {
        "id": "SVC_005", "floor": "B1", "floor_index": 2,
        "category": "service", "subcategory": "toilet",
        "name": "洗手间（男）",
        "type_icon": "🚹", "color": "#0891b2",
        "floor_access": ["B1"]
      },
      "geometry": { "type": "Point", "coordinates": [116.4611, 39.9094] }
    },
    {
      "type": "Feature",
      "properties": {
        "id": "ENT_001", "floor": "B1", "floor_index": 2,
        "category": "shopping", "subcategory": "supermarket",
        "name": "Ole 超市",
        "brand": "Ole", "brand_en": "OLE",
        "type_icon": "🛒", "color": "#3b82f6",
        "business_hours": "08:00-22:00"
      },
      "geometry": { "type": "Point", "coordinates": [116.4609, 39.9096] }
    },
    {
      "type": "Feature",
      "properties": {
        "id": "ENT_002", "floor": "B1", "floor_index": 2,
        "category": "dining", "subcategory": "cafe",
        "name": "星巴克",
        "brand": "Starbucks", "brand_en": "SBUX",
        "type_icon": "☕", "color": "#92400e",
        "business_hours": "07:00-22:00"
      },
      "geometry": { "type": "Point", "coordinates": [116.4607, 39.9095] }
    },
    {
      "type": "Feature",
      "properties": {
        "id": "ENT_003", "floor": "B2", "floor_index": 1,
        "category": "parking", "subcategory": "car",
        "name": "停车场 A区",
        "type_icon": "🅿️", "color": "#1f2937",
        "total_spaces": 200, "available_spaces": 85
      },
      "geometry": { "type": "Point", "coordinates": [116.4606, 39.9096] }
    },
    {
      "type": "Feature",
      "properties": {
        "id": "ENT_004", "floor": "B3", "floor_index": 0,
        "category": "parking", "subcategory": "car",
        "name": "停车场 B区",
        "type_icon": "🅿️", "color": "#1f2937",
        "total_spaces": 150, "available_spaces": 42
      },
      "geometry": { "type": "Point", "coordinates": [116.4610, 39.9097] }
    },
    {
      "type": "Feature",
      "properties": {
        "id": "ENT_005", "floor": "L1", "floor_index": 3,
        "category": "service", "subcategory": "entrance",
        "name": "东门入口",
        "type_icon": "🚪", "color": "#10b981",
        "floor_access": ["L1"]
      },
      "geometry": { "type": "Point", "coordinates": [116.4614, 39.9097] }
    },
    {
      "type": "Feature",
      "properties": {
        "id": "ENT_006", "floor": "L1", "floor_index": 3,
        "category": "service", "subcategory": "exit",
        "name": "西门出口",
        "type_icon": "🚪", "color": "#f87171",
        "floor_access": ["L1"]
      },
      "geometry": { "type": "Point", "coordinates": [116.4603, 39.9097] }
    },
    {
      "type": "Feature",
      "properties": {
        "id": "AREA_001", "floor": "L1", "floor_index": 3,
        "category": "area", "subcategory": "corridor",
        "name": "中央走廊",
        "type_icon": "📐", "color": "#475569"
      },
      "geometry": {
        "type": "Polygon",
        "coordinates": [[[116.4603, 39.9093], [116.4615, 39.9093], [116.4615, 39.9102], [116.4603, 39.9102], [116.4603, 39.9093]]]
      }
    },
    {
      "type": "Feature",
      "properties": {
        "id": "AREA_002", "floor": "L3", "floor_index": 5,
        "category": "area", "subcategory": "corridor",
        "name": "北区购物区",
        "type_icon": "📐", "color": "#1e40af"
      },
      "geometry": {
        "type": "Polygon",
        "coordinates": [[[116.4603, 39.9095], [116.4609, 39.9095], [116.4609, 39.9101], [116.4603, 39.9101], [116.4603, 39.9095]]]
      }
    }
  ]
}
